{
    "links": {
        "self": "http://www.neowsapp.com/rest/v1/neo/3989293?api_key=iIulBulltgU6a56xZRHN4H3l9WmuAYTsLGpBGhQ2"
    },
    "id": "3989293",
    "neo_reference_id": "3989293",
    "name": "(2020 BG13)",
    "designation": "2020 BG13",
    "nasa_jpl_url": "http://ssd.jpl.nasa.gov/sbdb.cgi?sstr=3989293",
    "absolute_magnitude_h": 27.764,
    "estimated_diameter": {
        "kilometers": {
            "estimated_diameter_min": 0.0074431192,
            "estimated_diameter_max": 0.0166433206
        },
        "meters": {
            "estimated_diameter_min": 7.4431192415,
            "estimated_diameter_max": 16.6433205887
        },
        "miles": {
            "estimated_diameter_min": 0.0046249384,
            "estimated_diameter_max": 0.0103416768
        },
        "feet": {
            "estimated_diameter_min": 24.4196833324,
            "estimated_diameter_max": 54.6040719203
        }
    },
    "is_potentially_hazardous_asteroid": false,
    "close_approach_data": [
        {
            "close_approach_date": "2020-01-28",
            "close_approach_date_full": "2020-Jan-28 05:34",
            "epoch_date_close_approach": 1580189640000,
            "relative_velocity": {
                "kilometers_per_second": "8.6567249415",
                "kilometers_per_hour": "31164.20978953",
                "miles_per_hour": "19364.2280217221"
            },
            "miss_distance": {
                "astronomical": "0.0068916721",
                "lunar": "2.6808604469",
                "kilometers": "1030979.466898427",
                "miles": "640620.9347432126"
            },
            "orbiting_body": "Moon"
        },
        {
            "close_approach_date": "2020-01-28",
            "close_approach_date_full": "2020-Jan-28 11:55",
            "epoch_date_close_approach": 1580212500000,
            "relative_velocity": {
                "kilometers_per_second": "8.4889777725",
                "kilometers_per_hour": "30560.3199811092",
                "miles_per_hour": "18988.9943793731"
            },
            "miss_distance": {
                "astronomical": "0.0055219241",
                "lunar": "2.1480284749",
                "kilometers": "826068.083661667",
                "miles": "513294.9053863246"
            },
            "orbiting_body": "Earth"
        }
    ],
    "orbital_data": {
        "orbit_id": "2",
        "orbit_determination_date": "2020-02-03 05:40:21",
        "first_observation_date": "2020-01-29",
        "last_observation_date": "2020-01-30",
        "data_arc_in_days": 1,
        "observations_used": 42,
        "orbit_uncertainty": "7",
        "minimum_orbit_intersection": ".00502633",
        "jupiter_tisserand_invariant": "4.395",
        "epoch_osculation": "2459000.5",
        "eccentricity": ".3669136605420315",
        "semi_major_axis": "1.527962382697591",
        "inclination": "11.01754473942204",
        "ascending_node_longitude": "128.0392995463637",
        "orbital_period": "689.8702557202574",
        "perihelion_distance": ".967332111691493",
        "perihelion_argument": "335.8728473346216",
        "aphelion_distance": "2.088592653703688",
        "perihelion_time": "2458857.126829566205",
        "mean_anomaly": "74.81746158526329",
        "mean_motion": ".5218372542009987",
        "equinox": "J2000",
        "orbit_class": {
            "orbit_class_type": "APO",
            "orbit_class_description": "Near-Earth asteroid orbits which cross the Earth’s orbit similar to that of 1862 Apollo",
            "orbit_class_range": "a (semi-major axis) > 1.0 AU; q (perihelion) < 1.017 AU"
        }
    },
    "is_sentry_object": false
}